[{"OBJECT_NAME":"STARLINK-5573","OBJECT_ID":"2023-028K","EPOCH":"2026-03-09T21:58:40.857024","MEAN_MOTION":14.98328699,"ECCENTRICITY":0.0002829,"INCLINATION":69.9992,"RA_OF_ASC_NODE":243.8991,"ARG_OF_PERICENTER":267.9298,"MEAN_ANOMALY":92.1537,"EPHEMERIS_TYPE":0,"CLASSIFICATION_TYPE":"U","NORAD_CAT_ID":55750,"ELEMENT_SET_NO":999,"REV_AT_EPOCH":16607,"BSTAR":-2.3316039e-5,"MEAN_MOTION_DOT":-3.71e-6,"MEAN_MOTION_DDOT":0},{"OBJECT_NAME":"VELOX-PII","OBJECT_ID":"2013-066Y","EPOCH":"2026-03-09T19:57:03.071520","MEAN_MOTION":14.92474173,"ECCENTRICITY":0.00523549,"INCLINATION":97.8641,"RA_OF_ASC_NODE":20.1898,"ARG_OF_PERICENTER":313.6731,"MEAN_ANOMALY":46.0154,"EPHEMERIS_TYPE":0,"CLASSIFICATION_TYPE":"U","NORAD_CAT_ID":39438,"ELEMENT_SET_NO":999,"REV_AT_EPOCH":66301,"BSTAR":0.00044125176,"MEAN_MOTION_DOT":4.587e-5,"MEAN_MOTION_DDOT":0}]
